[{"OBJECT_NAME":"JILIN-1 05","OBJECT_ID":"2017-074B","EPOCH":"2026-03-09T21:56:30.612480","MEAN_MOTION":15.3245271,"ECCENTRICITY":0.00045948,"INCLINATION":97.4781,"RA_OF_ASC_NODE":173.8936,"ARG_OF_PERICENTER":206.4038,"MEAN_ANOMALY":153.6971,"EPHEMERIS_TYPE":0,"CLASSIFICATION_TYPE":"U","NORAD_CAT_ID":43023,"ELEMENT_SET_NO":999,"REV_AT_EPOCH":45879,"BSTAR":0.00026108793,"MEAN_MOTION_DOT":8.104e-5,"MEAN_MOTION_DDOT":0},{"OBJECT_NAME":"STARLINK-30916","OBJECT_ID":"2023-178T","EPOCH":"2026-03-09T05:01:57.432864","MEAN_MOTION":15.30187173,"ECCENTRICITY":0.00011284,"INCLINATION":53.1626,"RA_OF_ASC_NODE":3.5031,"ARG_OF_PERICENTER":97.424,"MEAN_ANOMALY":262.6889,"EPHEMERIS_TYPE":0,"CLASSIFICATION_TYPE":"U","NORAD_CAT_ID":58391,"ELEMENT_SET_NO":999,"REV_AT_EPOCH":12981,"BSTAR":5.944348e-6,"MEAN_MOTION_DOT":-1.83e-6,"MEAN_MOTION_DDOT":0}]
